start=new Date('2022-07-30T00:00:00.000Z').valueOf();
sats=[{"LAUNCH_DATE":"2021-05-15","GP_ID":"209133413","MEAN_MOTION":"15.06397619","MEAN_MOTION_DDOT":"0.0000000000000","OBJECT_ID":"2021-041D","TLE_LINE1":"1 48556U 21041D   22210.66070956 -.00001644  00000-0 -91497-4 0  9993","PERIOD":"95.592","APOAPSIS":"548.221","ARG_OF_PERICENTER":"83.0712","COUNTRY_CODE":"US","FILE":"3524848","PERIAPSIS":"546.221","ECCENTRICITY":"0.00014440","NORAD_CAT_ID":"48556","OBJECT_TYPE":"PAYLOAD","SEMIMAJOR_AXIS":"6925.356","CLASSIFICATION_TYPE":"U","INCLINATION":"53.0551","TIME_SYSTEM":"UTC","MEAN_ANOMALY":"277.0441","BSTAR":"-0.00009149700000","MEAN_MOTION_DOT":"-0.00001644","REV_AT_EPOCH":"6625","MEAN_ELEMENT_THEORY":"SGP4","SITE":"AFETR","ELEMENT_SET_NO":"999","DECAY_DATE":null,"RCS_SIZE":"LARGE","EPOCH":"2022-07-29T15:51:25.305984","OBJECT_NAME":"STARLINK-2151","CENTER_NAME":"EARTH","RA_OF_ASC_NODE":"302.9841","EPHEMERIS_TYPE":"0","REF_FRAME":"TEME","TLE_LINE2":"2 48556  53.0551 302.9841 0001444  83.0712 277.0441 15.06397619 66251"},{"REV_AT_EPOCH":"6637","SITE":"AFETR","MEAN_ELEMENT_THEORY":"SGP4","MEAN_ANOMALY":"280.4068","TIME_SYSTEM":"UTC","MEAN_MOTION_DOT":"-0.00007391","BSTAR":"-0.00047737000000","OBJECT_TYPE":"PAYLOAD","NORAD_CAT_ID":"48557","SEMIMAJOR_AXIS":"6925.244","INCLINATION":"53.0539","CLASSIFICATION_TYPE":"U","COUNTRY_CODE":"US","PERIAPSIS":"546.151","FILE":"3524608","ECCENTRICITY":"0.00013830","PERIOD":"95.590","TLE_LINE1":"1 48557U 21041E   22210.53259759 -.00007391  00000-0 -47737-3 0  9992","ARG_OF_PERICENTER":"79.7077","APOAPSIS":"548.067","OBJECT_ID":"2021-041E","MEAN_MOTION":"15.06434102","MEAN_MOTION_DDOT":"0.0000000000000","GP_ID":"209101473","LAUNCH_DATE":"2021-05-15","TLE_LINE2":"2 48557  53.0539 293.5470 0001383  79.7077 280.4068 15.06434102 66374","REF_FRAME":"TEME","RA_OF_ASC_NODE":"293.5470","EPHEMERIS_TYPE":"0","CENTER_NAME":"EARTH","OBJECT_NAME":"STARLINK-2155","RCS_SIZE":"LARGE","EPOCH":"2022-07-29T12:46:56.431776","DECAY_DATE":null,"ELEMENT_SET_NO":"999"},{"OBJECT_TYPE":"PAYLOAD","SEMIMAJOR_AXIS":"6925.337","NORAD_CAT_ID":"48558","INCLINATION":"53.0559","CLASSIFICATION_TYPE":"U","COUNTRY_CODE":"US","FILE":"3524848","ECCENTRICITY":"0.00011550","PERIAPSIS":"546.402","REV_AT_EPOCH":"6552","SITE":"AFETR","MEAN_ELEMENT_THEORY":"SGP4","MEAN_ANOMALY":"269.6804","TIME_SYSTEM":"UTC","MEAN_MOTION_DOT":"0.00000610","BSTAR":"0.00005982800000","MEAN_MOTION":"15.06403846","MEAN_MOTION_DDOT":"0.0000000000000","GP_ID":"209132429","LAUNCH_DATE":"2021-05-15","TLE_LINE1":"1 48558U 21041F   22210.59527206  .00000610  00000-0  59828-4 0  9994","PERIOD":"95.592","ARG_OF_PERICENTER":"90.4317","APOAPSIS":"548.002","OBJECT_ID":"2021-041F","RA_OF_ASC_NODE":"293.2729","EPHEMERIS_TYPE":"0","CENTER_NAME":"EARTH","TLE_LINE2":"2 48558  53.0559 293.2729 0001155  90.4317 269.6804 15.06403846 65529","REF_FRAME":"TEME","DECAY_DATE":null,"ELEMENT_SET_NO":"999","OBJECT_NAME":"STARLINK-2166","RCS_SIZE":"LARGE","EPOCH":"2022-07-29T14:17:11.505984"},{"TLE_LINE2":"2 48559  53.0552 293.6951 0001221  86.6157 273.4972 15.06408537 66361","REF_FRAME":"TEME","RA_OF_ASC_NODE":"293.6951","EPHEMERIS_TYPE":"0","CENTER_NAME":"EARTH","OBJECT_NAME":"STARLINK-2167","RCS_SIZE":"LARGE","EPOCH":"2022-07-29T11:57:50.136480","DECAY_DATE":null,"ELEMENT_SET_NO":"999","REV_AT_EPOCH":"6636","MEAN_ELEMENT_THEORY":"SGP4","SITE":"AFETR","TIME_SYSTEM":"UTC","MEAN_ANOMALY":"273.4972","MEAN_MOTION_DOT":"0.00000704","BSTAR":"0.00006615700000","SEMIMAJOR_AXIS":"6925.322","OBJECT_TYPE":"PAYLOAD","NORAD_CAT_ID":"48559","CLASSIFICATION_TYPE":"U","INCLINATION":"53.0552","COUNTRY_CODE":"US","ECCENTRICITY":"0.00012210","FILE":"3524608","PERIAPSIS":"546.342","TLE_LINE1":"1 48559U 21041G   22210.49849695  .00000704  00000-0  66157-4 0  9990","PERIOD":"95.592","ARG_OF_PERICENTER":"86.6157","APOAPSIS":"548.033","OBJECT_ID":"2021-041G","MEAN_MOTION":"15.06408537","MEAN_MOTION_DDOT":"0.0000000000000","GP_ID":"209102475","LAUNCH_DATE":"2021-05-15"},{"REF_FRAME":"TEME","TLE_LINE2":"2 48561  53.0525 262.4203 0001115  97.0509 263.0607 15.06403001 66841","CENTER_NAME":"EARTH","EPHEMERIS_TYPE":"0","RA_OF_ASC_NODE":"262.4203","EPOCH":"2022-07-29T20:16:51.494880","RCS_SIZE":"LARGE","OBJECT_NAME":"STARLINK-2186","ELEMENT_SET_NO":"999","DECAY_DATE":null,"BSTAR":"-0.00000517780000","MEAN_MOTION_DOT":"-0.00000358","MEAN_ANOMALY":"263.0607","TIME_SYSTEM":"UTC","SITE":"AFETR","MEAN_ELEMENT_THEORY":"SGP4","REV_AT_EPOCH":"6684","PERIAPSIS":"546.432","FILE":"3524848","ECCENTRICITY":"0.00011150","COUNTRY_CODE":"US","INCLINATION":"53.0525","CLASSIFICATION_TYPE":"U","OBJECT_TYPE":"PAYLOAD","NORAD_CAT_ID":"48561","SEMIMAJOR_AXIS":"6925.339","OBJECT_ID":"2021-041J","APOAPSIS":"547.977","ARG_OF_PERICENTER":"97.0509","PERIOD":"95.592","TLE_LINE1":"1 48561U 21041J   22210.84504045 -.00000358  00000-0 -51778-5 0  9990","GP_ID":"209132914","LAUNCH_DATE":"2021-05-15","MEAN_MOTION_DDOT":"0.0000000000000","MEAN_MOTION":"15.06403001"},{"GP_ID":"209101974","LAUNCH_DATE":"2021-05-15","MEAN_MOTION_DDOT":"0.0000000000000","MEAN_MOTION":"15.06401665","OBJECT_ID":"2021-041K","APOAPSIS":"548.110","ARG_OF_PERICENTER":"96.9164","TLE_LINE1":"1 48562U 21041K   22210.50680793  .00000434  00000-0  48040-4 0  9999","PERIOD":"95.592","FILE":"3524608","ECCENTRICITY":"0.00013020","PERIAPSIS":"546.307","COUNTRY_CODE":"US","INCLINATION":"53.0550","CLASSIFICATION_TYPE":"U","OBJECT_TYPE":"PAYLOAD","SEMIMAJOR_AXIS":"6925.343","NORAD_CAT_ID":"48562","MEAN_MOTION_DOT":"0.00000434","BSTAR":"0.00004804000000","MEAN_ANOMALY":"263.1973","TIME_SYSTEM":"UTC","SITE":"AFETR","MEAN_ELEMENT_THEORY":"SGP4","REV_AT_EPOCH":"6637","ELEMENT_SET_NO":"999","DECAY_DATE":null,"EPOCH":"2022-07-29T12:09:48.205152","RCS_SIZE":"LARGE","OBJECT_NAME":"STARLINK-2187","CENTER_NAME":"EARTH","EPHEMERIS_TYPE":"0","RA_OF_ASC_NODE":"293.6594","REF_FRAME":"TEME","TLE_LINE2":"2 48562  53.0550 293.6594 0001302  96.9164 263.1973 15.06401665 66371"},{"OBJECT_ID":"2021-041L","TLE_LINE1":"1 48563U 21041L   22210.65794501 -.00001557  00000-0 -85709-4 0  9991","PERIOD":"95.593","ARG_OF_PERICENTER":"75.5008","APOAPSIS":"548.156","LAUNCH_DATE":"2021-05-15","GP_ID":"209131930","MEAN_MOTION":"15.06390771","MEAN_MOTION_DDOT":"0.0000000000000","TIME_SYSTEM":"UTC","MEAN_ANOMALY":"284.6128","MEAN_MOTION_DOT":"-0.00001557","BSTAR":"-0.00008570900000","REV_AT_EPOCH":"6639","MEAN_ELEMENT_THEORY":"SGP4","SITE":"AFETR","COUNTRY_CODE":"US","FILE":"3524848","PERIAPSIS":"546.328","ECCENTRICITY":"0.00013200","OBJECT_TYPE":"PAYLOAD","SEMIMAJOR_AXIS":"6925.377","NORAD_CAT_ID":"48563","CLASSIFICATION_TYPE":"U","INCLINATION":"53.0539","RCS_SIZE":"LARGE","EPOCH":"2022-07-29T15:47:26.448864","OBJECT_NAME":"STARLINK-2188","ELEMENT_SET_NO":"999","DECAY_DATE":null,"REF_FRAME":"TEME","TLE_LINE2":"2 48563  53.0539 292.9818 0001320  75.5008 284.6128 15.06390771 66397","CENTER_NAME":"EARTH","RA_OF_ASC_NODE":"292.9818","EPHEMERIS_TYPE":"0"},{"OBJECT_NAME":"STARLINK-2190","RCS_SIZE":"LARGE","EPOCH":"2022-07-29T15:36:48.530016","DECAY_DATE":null,"ELEMENT_SET_NO":"999","TLE_LINE2":"2 48564  53.0546 293.0307 0001190  80.2644 279.8479 15.06404607 66394","REF_FRAME":"TEME","RA_OF_ASC_NODE":"293.0307","EPHEMERIS_TYPE":"0","CENTER_NAME":"EARTH","TLE_LINE1":"1 48564U 21041M   22210.65056169  .00001913  00000-0  14725-3 0  9996","PERIOD":"95.592","ARG_OF_PERICENTER":"80.2644","APOAPSIS":"548.024","OBJECT_ID":"2021-041M","MEAN_MOTION":"15.06404607","MEAN_MOTION_DDOT":"0.0000000000000","LAUNCH_DATE":"2021-05-15","GP_ID":"209132679","REV_AT_EPOCH":"6639","SITE":"AFETR","MEAN_ELEMENT_THEORY":"SGP4","MEAN_ANOMALY":"279.8479","TIME_SYSTEM":"UTC","BSTAR":"0.00014725000000","MEAN_MOTION_DOT":"0.00001913","OBJECT_TYPE":"PAYLOAD","NORAD_CAT_ID":"48564","SEMIMAJOR_AXIS":"6925.334","INCLINATION":"53.0546","CLASSIFICATION_TYPE":"U","COUNTRY_CODE":"US","PERIAPSIS":"546.375","FILE":"3524848","ECCENTRICITY":"0.00011900"},{"BSTAR":"-0.00002786600000","MEAN_MOTION_DOT":"-0.00000696","TIME_SYSTEM":"UTC","MEAN_ANOMALY":"268.1750","MEAN_ELEMENT_THEORY":"SGP4","SITE":"AFETR","REV_AT_EPOCH":"6640","FILE":"3524848","PERIAPSIS":"546.364","ECCENTRICITY":"0.00012200","COUNTRY_CODE":"US","CLASSIFICATION_TYPE":"U","INCLINATION":"53.0549","OBJECT_TYPE":"PAYLOAD","NORAD_CAT_ID":"48565","SEMIMAJOR_AXIS":"6925.344","OBJECT_ID":"2021-041N","ARG_OF_PERICENTER":"91.9378","APOAPSIS":"548.054","PERIOD":"95.592","TLE_LINE1":"1 48565U 21041N   22210.71228279 -.00000696  00000-0 -27866-4 0  9997","GP_ID":"209133414","LAUNCH_DATE":"2021-05-15","MEAN_MOTION_DDOT":"0.0000000000000","MEAN_MOTION":"15.06401598","REF_FRAME":"TEME","TLE_LINE2":"2 48565  53.0549 292.7320 0001220  91.9378 268.1750 15.06401598 66407","CENTER_NAME":"EARTH","EPHEMERIS_TYPE":"0","RA_OF_ASC_NODE":"292.7320","EPOCH":"2022-07-29T17:05:41.233056","RCS_SIZE":"LARGE","OBJECT_NAME":"STARLINK-2191","ELEMENT_SET_NO":"999","DECAY_DATE":null},{"OBJECT_ID":"2021-041P","APOAPSIS":"548.120","ARG_OF_PERICENTER":"72.2774","PERIOD":"95.592","TLE_LINE1":"1 48566U 21041P   22210.66806317  .00000190  00000-0  31627-4 0  9994","GP_ID":"209132180","LAUNCH_DATE":"2021-05-15","MEAN_MOTION_DDOT":"0.0000000000000","MEAN_MOTION":"15.06406794","MEAN_MOTION_DOT":"0.00000190","BSTAR":"0.00003162700000","TIME_SYSTEM":"UTC","MEAN_ANOMALY":"287.8361","MEAN_ELEMENT_THEORY":"SGP4","SITE":"AFETR","REV_AT_EPOCH":"6625","FILE":"3524848","ECCENTRICITY":"0.00013390","PERIAPSIS":"546.265","COUNTRY_CODE":"US","CLASSIFICATION_TYPE":"U","INCLINATION":"53.0551","NORAD_CAT_ID":"48566","OBJECT_TYPE":"PAYLOAD","SEMIMAJOR_AXIS":"6925.328","EPOCH":"2022-07-29T16:02:00.657888","RCS_SIZE":"MEDIUM","OBJECT_NAME":"STARLINK-2214","ELEMENT_SET_NO":"999","DECAY_DATE":null,"REF_FRAME":"TEME","TLE_LINE2":"2 48566  53.0551 302.9096 0001339  72.2774 287.8361 15.06406794 66250","CENTER_NAME":"EARTH","EPHEMERIS_TYPE":"0","RA_OF_ASC_NODE":"302.9096"}];
